STARLINK-31982          
1 60022U 24111G   26068.39675336 -.00001912  00000+0 -52451-4 0  9998
2 60022  53.1610  76.6335 0001312 104.9475 255.1672 15.30197424 99007
TEVEL2-1                
1 63217U 25052H   26068.64782323  .00020683  00000+0  70600-3 0  9994
2 63217  97.3991 324.7682 0004767 104.8919 255.2849 15.30341923 54855
